{"fetched_at": "2026-06-04T18:22:40.312840+00:00", "line1": "1 36744U 10032A   26152.73864208 -.00000334  00000+0  00000+0 0  9993", "line2": "2 36744   4.7700  75.5552 0001064 351.7830 216.9341  1.00271905 50939"}
{"fetched_at": "2026-06-22T01:53:09.264767+00:00", "line1": "1 36744U 10032A   26171.12316773  .00000087  00000+0  00000+0 0  9990", "line2": "2 36744   4.8136  75.3217 0011650  12.3209 286.7612  0.99163259 51117"}
